{
    "links": {
        "self": "http://www.neowsapp.com/rest/v1/neo/3789444?api_key=iIulBulltgU6a56xZRHN4H3l9WmuAYTsLGpBGhQ2"
    },
    "id": "3789444",
    "neo_reference_id": "3789444",
    "name": "(2017 VM15)",
    "designation": "2017 VM15",
    "nasa_jpl_url": "http://ssd.jpl.nasa.gov/sbdb.cgi?sstr=3789444",
    "absolute_magnitude_h": 21.7,
    "estimated_diameter": {
        "kilometers": {
            "estimated_diameter_min": 0.1214940408,
            "estimated_diameter_max": 0.2716689341
        },
        "meters": {
            "estimated_diameter_min": 121.4940407996,
            "estimated_diameter_max": 271.6689340891
        },
        "miles": {
            "estimated_diameter_min": 0.0754928736,
            "estimated_diameter_max": 0.1688071972
        },
        "feet": {
            "estimated_diameter_min": 398.6025088171,
            "estimated_diameter_max": 891.3023057169
        }
    },
    "is_potentially_hazardous_asteroid": false,
    "close_approach_data": [
        {
            "close_approach_date": "2017-10-26",
            "close_approach_date_full": "2017-Oct-26 20:13",
            "epoch_date_close_approach": 1509048780000,
            "relative_velocity": {
                "kilometers_per_second": "28.6317906861",
                "kilometers_per_hour": "103074.4464698837",
                "miles_per_hour": "64046.4525856897"
            },
            "miss_distance": {
                "astronomical": "0.2302699702",
                "lunar": "89.5750184078",
                "kilometers": "34447897.066883474",
                "miles": "21404930.6775369812"
            },
            "orbiting_body": "Earth"
        }
    ],
    "orbital_data": {
        "orbit_id": "1",
        "orbit_determination_date": "2017-11-19 10:42:07",
        "first_observation_date": "2017-11-15",
        "last_observation_date": "2017-11-19",
        "data_arc_in_days": 4,
        "observations_used": 24,
        "orbit_uncertainty": "9",
        "minimum_orbit_intersection": ".11273",
        "jupiter_tisserand_invariant": "2.751",
        "epoch_osculation": "2458074.5",
        "eccentricity": ".7824797476566031",
        "semi_major_axis": "2.828854044722854",
        "inclination": "6.945798948433371",
        "ascending_node_longitude": "313.0559527654036",
        "orbital_period": "1737.857800741976",
        "perihelion_distance": ".6153330456507542",
        "perihelion_argument": "347.3181720810334",
        "aphelion_distance": "5.042375043794954",
        "perihelion_time": "2458011.153651668336",
        "mean_anomaly": "13.12229653638094",
        "mean_motion": ".2071515861920915",
        "equinox": "J2000",
        "orbit_class": {
            "orbit_class_type": "APO",
            "orbit_class_description": "Near-Earth asteroid orbits which cross the Earth’s orbit similar to that of 1862 Apollo",
            "orbit_class_range": "a (semi-major axis) > 1.0 AU; q (perihelion) < 1.017 AU"
        }
    },
    "is_sentry_object": false
}